H1 CPF 01  gfz 2022 12 18 13  8522 tandemx   
H2 1003001  6202 36605    2022 12 18 12 59 42 2022 12 23 00 00 42   120 1 1  0 0 0
H9
10 0 59934  69102.000000  0   -5202712.203   2187265.742  -3958465.138
10 0 59934  69222.000000  0   -4608049.104   2141615.405  -4659222.881
10 0 59934  69342.000000  0   -3934499.221   2047636.124  -5278403.686
10 0 59934  69462.000000  0   -3194687.410   1905730.072  -5805265.905
10 0 59934  69582.000000  0   -2402341.745   1717355.079  -6230694.469
10 0 59934  69702.000000  0   -1572034.745   1485013.038  -6547348.266
10 0 59934  69822.000000  0    -718914.500   1212216.874  -6749774.245
10 0 59934  69942.000000  0     141567.612    903437.091  -6834490.795
10 0 59934  70062.000000  0     993929.362    564029.799  -6800040.900
10 0 59934  70182.000000  0    1822930.037    200145.764  -6647016.813
10 0 59934  70302.000000  0    2613837.288   -181378.500  -6378050.085
10 0 59934  70422.000000  0    3352683.888   -573145.034  -5997771.721
10 0 59934  70542.000000  0    4026511.876   -967333.339  -5512739.654
10 0 59934  70662.000000  0    4623599.647  -1355851.323  -4931337.089
10 0 59934  70782.000000  0    5133671.124  -1730497.724  -4263639.657
10 0 59934  70902.000000  0    5548080.412  -2083131.503  -3521251.286
10 0 59934  71022.000000  0    5859968.684  -2405845.108  -2717111.001
10 0 59934  71142.000000  0    6064388.944  -2691138.185  -1865272.208
10 0 59934  71262.000000  0    6158394.557  -2932087.225   -980658.350
10 0 59934  71382.000000  0    6141089.774  -3122507.069    -78799.585
10 0 59934  71502.000000  0    6013639.621  -3257100.189    824445.162
10 0 59934  71622.000000  0    5779239.396  -3331589.862   1713174.801
10 0 59934  71742.000000  0    5443041.265  -3342832.696   2571736.453
10 0 59934  71862.000000  0    5012040.865  -3288907.893   3385009.032
10 0 59934  71982.000000  0    4494928.315  -3169180.416   4138676.480
10 0 59934  72102.000000  0    3901908.095  -2984337.567   4819483.230
10 0 59934  72222.000000  0    3244490.536  -2736399.145   5415470.138
10 0 59934  72342.000000  0    2535260.118  -2428698.462   5916182.693
10 0 59934  72462.000000  0    1787628.567  -2065836.876   6312850.113
10 0 59934  72582.000000  0    1015576.616  -1653613.243   6598533.424
10 0 59934  72702.000000  0     233389.552  -1198929.093   6768240.818
10 0 59934  72822.000000  0    -544607.939   -709671.273   6819009.184
10 0 59934  72942.000000  0   -1304313.283   -194574.517   6749951.854
10 0 59934  73062.000000  0   -2032100.491    336934.165   6562273.115
10 0 59934  73182.000000  0   -2715063.733    874907.446   6259248.730
10 0 59934  73302.000000  0   -3341246.668   1409062.840   5846172.671
10 0 59934  73422.000000  0   -3899854.251   1928978.363   5330270.753
10 0 59934  73542.000000  0   -4381443.998   2424296.091   4720581.019
10 0 59934  73662.000000  0   -4778092.498   2884929.988   4027800.505
10 0 59934  73782.000000  0   -5083532.190   3301272.387   3264100.328
10 0 59934  73902.000000  0   -5293256.727   3664395.844   2442913.679
10 0 59934  74022.000000  0   -5404592.437   3966246.116   1578698.611
10 0 59934  74142.000000  0   -5416733.627   4199820.762    686678.437
10 0 59934  74262.000000  0   -5330738.818   4359327.724   -217434.186
10 0 59934  74382.000000  0   -5149489.692   4440320.712  -1117721.898
10 0 59934  74502.000000  0   -4877613.477   4439808.532  -1998352.573
10 0 59934  74622.000000  0   -4521368.913   4356333.588  -2843867.112
10 0 59934  74742.000000  0   -4088500.320   4190017.879  -3639456.533
10 0 59934  74862.000000  0   -3588064.223   3942576.947  -4371223.129
10 0 59934  74982.000000  0   -3030233.898   3617302.117  -5026420.300
10 0 59934  75102.000000  0   -2426088.233   3219012.249  -5593667.285
10 0 59934  75222.000000  0   -1787389.316   2753977.684  -6063138.597
10 0 59934  75342.000000  0   -1126351.375   2229815.904  -6426724.140
10 0 59934  75462.000000  0    -455408.001   1655362.747  -6678156.998
10 0 59934  75582.000000  0     213018.202   1040522.628  -6813110.622
10 0 59934  75702.000000  0     866739.668    396099.544  -6829265.302
10 0 59934  75822.000000  0    1494021.524   -266388.997  -6726345.005
10 0 59934  75942.000000  0    2083787.429   -934913.530  -6506120.056
10 0 59934  76062.000000  0    2625810.400  -1597145.127  -6172380.036
10 0 59934  76182.000000  0    3110888.007  -2240676.954  -5730875.479
10 0 59934  76302.000000  0    3530999.039  -2853252.460  -5189230.538
10 0 59934  76422.000000  0    3879440.315  -3422999.118  -4556822.349
10 0 59934  76542.000000  0    4150937.088  -3938658.950  -3844627.846
10 0 59934  76662.000000  0    4341727.769  -4389812.877  -3065043.684
10 0 59934  76782.000000  0    4449621.674  -4767095.776  -2231677.907
10 0 59934  76902.000000  0    4474026.508  -5062396.290  -1359115.768
10 0 59934  77022.000000  0    4415943.172  -5269036.323   -462663.285
10 0 59934  77142.000000  0    4277928.250  -5381923.592    441925.974
10 0 59934  77262.000000  0    4064024.891  -5397674.536   1338734.641
10 0 59934  77382.000000  0    3779663.148  -5314702.992   2211971.305
10 0 59934  77502.000000  0    3431531.205  -5133271.681   3046257.057
10 0 59934  77622.000000  0    3027422.726  -4855507.537   3826903.587
10 0 59934  77742.000000  0    2576063.560  -4485378.180   4540177.201
10 0 59934  77862.000000  0    2086922.908  -4028631.669   5173543.191
10 0 59934  77982.000000  0    1570013.058  -3492701.160   5715885.807
10 0 59934  78102.000000  0    1035682.287  -2886576.530   6157700.938
10 0 59934  78222.000000  0     494405.814  -2220646.872   6491256.772
10 0 59934  78342.000000  0     -43420.222  -1506517.823   6710722.189
10 0 59934  78462.000000  0    -567677.499   -756807.118   6812263.136
10 0 59934  78582.000000  0   -1068714.709     15080.098   6794106.111
10 0 59934  78702.000000  0   -1537524.555    795191.033   6656566.949
10 0 59934  78822.000000  0   -1965905.211   1569276.842   6402045.433
10 0 59934  78942.000000  0   -2346604.220   2323051.949   6034986.081
10 0 59934  79062.000000  0   -2673442.246   3042457.803   5561805.378
10 0 59934  79182.000000  0   -2941415.145   3713926.803   4990786.011
10 0 59934  79302.000000  0   -3146773.493   4324642.114   4331938.391
10 0 59934  79422.000000  0   -3287076.367   4862788.328   3596829.890
10 0 59934  79542.000000  0   -3361218.519   5317787.564   2798384.056
10 0 59934  79662.000000  0   -3369429.650   5680514.663   1950652.452
10 0 59934  79782.000000  0   -3313246.260   5943485.639   1068563.960
10 0 59934  79902.000000  0   -3195456.285   6101016.835    167657.057
10 0 59934  80022.000000  0   -3020017.728   6149349.870   -736202.152
10 0 59934  80142.000000  0   -2791953.768   6086737.237  -1627109.581
10 0 59934  80262.000000  0   -2517224.820   5913485.714  -2489414.191
10 0 59934  80382.000000  0   -2202581.545   5631955.860  -3307998.803
10 0 59934  80502.000000  0   -1855405.792   5246523.635  -4068547.140
10 0 59934  80622.000000  0   -1483542.257   4763501.569  -4757793.895
10 0 59934  80742.000000  0   -1095125.669   4191024.101  -5363750.485
10 0 59934  80862.000000  0    -698406.909   3538901.509  -5875906.311
10 0 59934  80982.000000  0    -301581.058   2818443.299  -6285402.315
10 0 59934  81102.000000  0      87378.290   2042255.465  -6585172.518
10 0 59934  81222.000000  0     460874.373   1224018.578  -6770054.348
10 0 59934  81342.000000  0     811831.124    378248.268  -6836869.107
10 0 59934  81462.000000  0    1133823.684   -479958.126  -6784470.457
10 0 59934  81582.000000  0    1421192.538  -1335185.641  -6613760.727
10 0 59934  81702.000000  0    1669140.259  -2171970.803  -6327676.129
10 0 59934  81822.000000  0    1873810.819  -2975073.923  -5931142.635
10 0 59934  81942.000000  0    2032349.676  -3729752.869  -5431001.741
10 0 59934  82062.000000  0    2142943.633  -4422034.866  -4835902.975
10 0 59934  82182.000000  0    2204839.254  -5038976.694  -4156164.021
10 0 59934  82302.000000  0    2218339.935  -5568911.654  -3403602.921
10 0 59934  82422.000000  0    2184781.036  -6001679.303  -2591341.205
10 0 59934  82542.000000  0    2106483.198  -6328831.658  -1733580.316
10 0 59934  82662.000000  0    1986683.271  -6543809.211   -845354.092
10 0 59934  82782.000000  0    1829447.795  -6642083.079     57737.986
10 0 59934  82902.000000  0    1639566.621  -6621255.326    959811.741
10 0 59934  83022.000000  0    1422432.021  -6481120.177   1844984.546
10 0 59934  83142.000000  0    1183904.898  -6223679.352   2697666.248
10 0 59934  83262.000000  0     930171.778  -5853111.107   3502841.557
10 0 59934  83382.000000  0     667596.373  -5375697.154   4246340.585
10 0 59934  83502.000000  0     402570.181  -4799708.397   4915091.502
10 0 59934  83622.000000  0     141364.641  -4135252.384   5497351.564
10 0 59934  83742.000000  0    -110010.045  -3394085.753   5982911.649
10 0 59934  83862.000000  0    -345936.791  -2589396.271   6363270.687
10 0 59934  83982.000000  0    -561312.274  -1735561.795   6631776.885
10 0 59934  84102.000000  0    -751653.349   -847890.918   6783738.087
10 0 59934  84222.000000  0    -913187.797     57653.087   6816500.112
10 0 59934  84342.000000  0   -1042928.100    964740.077   6729490.497
10 0 59934  84462.000000  0   -1138726.178   1856967.195   6524227.570
10 0 59934  84582.000000  0   -1199308.696   2718154.848   6204295.581
10 0 59934  84702.000000  0   -1224293.118   3532640.471   5775286.118
10 0 59934  84822.000000  0   -1214183.710   4285565.662   5244705.575
10 0 59934  84942.000000  0   -1170347.099   4963151.646   4621850.345
10 0 59934  85062.000000  0   -1094969.081   5552959.295   3917649.078
10 0 59934  85182.000000  0    -990991.743   6044125.270   3144473.889
10 0 59934  85302.000000  0    -862035.157   6427572.701   2315926.133
10 0 59934  85422.000000  0    -712301.543   6696190.358   1446593.330
10 0 59934  85542.000000  0    -546464.876   6844971.489    551786.812
99
